start=new Date('2021-12-26T00:00:00.000Z').valueOf();
sats=[{"SITE":"AFETR","PERIOD":"95.592","MEAN_MOTION_DDOT":"0.0000000000000","NORAD_CAT_ID":"45684","CENTER_NAME":"EARTH","MEAN_ANOMALY":"266.4393","CLASSIFICATION_TYPE":"U","MEAN_MOTION_DOT":"0.00002078","OBJECT_NAME":"STARLINK-1401","COUNTRY_CODE":"US","TLE_LINE2":"2 45684  53.0534 106.9592 0001486  93.6766 266.4393 15.06401065 87531","OBJECT_TYPE":"PAYLOAD","LAUNCH_DATE":"2020-06-04","TIME_SYSTEM":"UTC","EPHEMERIS_TYPE":"0","APOAPSIS":"548.239","ELEMENT_SET_NO":"999","MEAN_ELEMENT_THEORY":"SGP4","REF_FRAME":"TEME","BSTAR":"0.00015837000000","OBJECT_ID":"2020-035AD","RCS_SIZE":"LARGE","INCLINATION":"53.0534","FILE":"3250974","DECAY_DATE":null,"EPOCH":"2021-12-25T19:27:24.831648","PERIAPSIS":"546.181","GP_ID":"192455800","ECCENTRICITY":"0.00014860","ARG_OF_PERICENTER":"93.6766","SEMIMAJOR_AXIS":"6925.345","RA_OF_ASC_NODE":"106.9592","MEAN_MOTION":"15.06401065","TLE_LINE1":"1 45684U 20035AD  21359.81070407  .00002078  00000-0  15837-3 0  9998","REV_AT_EPOCH":"8753"},{"TIME_SYSTEM":"UTC","LAUNCH_DATE":"2020-06-04","REF_FRAME":"TEME","MEAN_ELEMENT_THEORY":"SGP4","ELEMENT_SET_NO":"999","APOAPSIS":"548.188","EPHEMERIS_TYPE":"0","PERIOD":"95.592","MEAN_MOTION_DDOT":"0.0000000000000","SITE":"AFETR","TLE_LINE2":"2 45685  53.0543 107.2843 0001400  94.0369 266.0780 15.06398336 87526","OBJECT_TYPE":"PAYLOAD","COUNTRY_CODE":"US","OBJECT_NAME":"STARLINK-1402","MEAN_MOTION_DOT":"0.00001429","MEAN_ANOMALY":"266.0780","NORAD_CAT_ID":"45685","CENTER_NAME":"EARTH","CLASSIFICATION_TYPE":"U","SEMIMAJOR_AXIS":"6925.354","MEAN_MOTION":"15.06398336","RA_OF_ASC_NODE":"107.2843","ARG_OF_PERICENTER":"94.0369","ECCENTRICITY":"0.00014000","REV_AT_EPOCH":"8752","TLE_LINE1":"1 45685U 20035AE  21359.74066900  .00001429  00000-0  11483-3 0  9996","RCS_SIZE":"LARGE","INCLINATION":"53.0543","OBJECT_ID":"2020-035AE","BSTAR":"0.00011483000000","GP_ID":"192454550","PERIAPSIS":"546.249","FILE":"3250974","DECAY_DATE":null,"EPOCH":"2021-12-25T17:46:33.801600"},{"TIME_SYSTEM":"UTC","LAUNCH_DATE":"2020-06-04","ELEMENT_SET_NO":"999","EPHEMERIS_TYPE":"0","APOAPSIS":"548.313","REF_FRAME":"TEME","MEAN_ELEMENT_THEORY":"SGP4","MEAN_MOTION_DDOT":"0.0000000000000","PERIOD":"95.593","SITE":"AFETR","MEAN_MOTION_DOT":"-0.00002485","CLASSIFICATION_TYPE":"U","NORAD_CAT_ID":"45686","CENTER_NAME":"EARTH","MEAN_ANOMALY":"265.9955","OBJECT_TYPE":"PAYLOAD","TLE_LINE2":"2 45686  53.0533 107.0093 0001529  94.1208 265.9955 15.06386722 87535","OBJECT_NAME":"STARLINK-1404","COUNTRY_CODE":"US","ARG_OF_PERICENTER":"94.1208","ECCENTRICITY":"0.00015290","MEAN_MOTION":"15.06386722","SEMIMAJOR_AXIS":"6925.389","RA_OF_ASC_NODE":"107.0093","REV_AT_EPOCH":"8753","TLE_LINE1":"1 45686U 20035AF  21359.79965385 -.00002485  00000-0 -14804-3 0  9992","OBJECT_ID":"2020-035AF","BSTAR":"-0.00014804000000","INCLINATION":"53.0533","RCS_SIZE":"LARGE","DECAY_DATE":null,"EPOCH":"2021-12-25T19:11:30.092640","FILE":"3250974","GP_ID":"192455300","PERIAPSIS":"546.195"},{"PERIAPSIS":"449.493","GP_ID":"192426839","FILE":"3250775","EPOCH":"2021-12-25T02:22:01.783200","DECAY_DATE":null,"RCS_SIZE":"LARGE","INCLINATION":"53.0170","BSTAR":"0.00029177000000","OBJECT_ID":"2020-035AG","TLE_LINE1":"1 45687U 20035AG  21359.09863175  .00010914  00000-0  29177-3 0  9993","REV_AT_EPOCH":"8757","MEAN_MOTION":"15.38614087","SEMIMAJOR_AXIS":"6828.344","RA_OF_ASC_NODE":"97.3977","ECCENTRICITY":"0.00010480","ARG_OF_PERICENTER":"7.4826","COUNTRY_CODE":"US","OBJECT_NAME":"STARLINK-1406","TLE_LINE2":"2 45687  53.0170  97.3977 0001048   7.4826 352.6192 15.38614087 87578","OBJECT_TYPE":"PAYLOAD","MEAN_ANOMALY":"352.6192","NORAD_CAT_ID":"45687","CENTER_NAME":"EARTH","CLASSIFICATION_TYPE":"U","MEAN_MOTION_DOT":"0.00010914","SITE":"AFETR","PERIOD":"93.591","MEAN_MOTION_DDOT":"0.0000000000000","MEAN_ELEMENT_THEORY":"SGP4","REF_FRAME":"TEME","APOAPSIS":"450.924","EPHEMERIS_TYPE":"0","ELEMENT_SET_NO":"999","LAUNCH_DATE":"2020-06-04","TIME_SYSTEM":"UTC"},{"REV_AT_EPOCH":"8752","TLE_LINE1":"1 45688U 20035AH  21359.79226663  .00000564  00000-0  56755-4 0  9999","MEAN_MOTION":"15.06399987","SEMIMAJOR_AXIS":"6925.349","RA_OF_ASC_NODE":"107.0351","ARG_OF_PERICENTER":"77.8952","ECCENTRICITY":"0.00010790","GP_ID":"192456300","PERIAPSIS":"546.466","DECAY_DATE":null,"EPOCH":"2021-12-25T19:00:51.836832","FILE":"3250974","INCLINATION":"53.0529","RCS_SIZE":"LARGE","OBJECT_ID":"2020-035AH","BSTAR":"0.00005675500000","REF_FRAME":"TEME","MEAN_ELEMENT_THEORY":"SGP4","ELEMENT_SET_NO":"999","APOAPSIS":"547.961","EPHEMERIS_TYPE":"0","TIME_SYSTEM":"UTC","LAUNCH_DATE":"2020-06-04","OBJECT_TYPE":"PAYLOAD","TLE_LINE2":"2 45688  53.0529 107.0351 0001079  77.8952 282.2157 15.06399987 87525","COUNTRY_CODE":"US","OBJECT_NAME":"STARLINK-1408","MEAN_MOTION_DOT":"0.00000564","CLASSIFICATION_TYPE":"U","CENTER_NAME":"EARTH","NORAD_CAT_ID":"45688","MEAN_ANOMALY":"282.2157","MEAN_MOTION_DDOT":"0.0000000000000","PERIOD":"95.592","SITE":"AFETR"},{"RA_OF_ASC_NODE":"106.9173","SEMIMAJOR_AXIS":"6925.392","MEAN_MOTION":"15.06385943","ARG_OF_PERICENTER":"100.9984","ECCENTRICITY":"0.00013600","REV_AT_EPOCH":"8744","TLE_LINE1":"1 45689U 20035AJ  21359.81809036 -.00001921  00000-0 -11016-3 0  9994","INCLINATION":"53.0555","RCS_SIZE":"LARGE","OBJECT_ID":"2020-035AJ","BSTAR":"-0.00011016000000","GP_ID":"192455050","PERIAPSIS":"546.315","EPOCH":"2021-12-25T19:38:03.007104","DECAY_DATE":null,"FILE":"3250974","TIME_SYSTEM":"UTC","LAUNCH_DATE":"2020-06-04","REF_FRAME":"TEME","MEAN_ELEMENT_THEORY":"SGP4","ELEMENT_SET_NO":"999","APOAPSIS":"548.198","EPHEMERIS_TYPE":"0","MEAN_MOTION_DDOT":"0.0000000000000","PERIOD":"95.593","SITE":"AFETR","OBJECT_TYPE":"PAYLOAD","TLE_LINE2":"2 45689  53.0555 106.9173 0001360 100.9984 259.1158 15.06385943 87443","COUNTRY_CODE":"US","OBJECT_NAME":"STARLINK-1413","MEAN_MOTION_DOT":"-0.00001921","CLASSIFICATION_TYPE":"U","NORAD_CAT_ID":"45689","MEAN_ANOMALY":"259.1158","CENTER_NAME":"EARTH"},{"TIME_SYSTEM":"UTC","LAUNCH_DATE":"2020-06-04","ELEMENT_SET_NO":"999","EPHEMERIS_TYPE":"0","APOAPSIS":"550.719","REF_FRAME":"TEME","MEAN_ELEMENT_THEORY":"SGP4","PERIOD":"95.644","MEAN_MOTION_DDOT":"0.0000000000000","SITE":"AFETR","MEAN_MOTION_DOT":"-0.00000384","NORAD_CAT_ID":"45690","CENTER_NAME":"EARTH","MEAN_ANOMALY":"261.3024","CLASSIFICATION_TYPE":"U","TLE_LINE2":"2 45690  53.0022 107.1511 0001415  98.8125 261.3024 15.05576611 87491","OBJECT_TYPE":"PAYLOAD","COUNTRY_CODE":"US","OBJECT_NAME":"STARLINK-1414","ARG_OF_PERICENTER":"98.8125","ECCENTRICITY":"0.00014150","SEMIMAJOR_AXIS":"6927.873","RA_OF_ASC_NODE":"107.1511","MEAN_MOTION":"15.05576611","REV_AT_EPOCH":"8749","TLE_LINE1":"1 45690U 20035AK  21359.77006528 -.00000384  00000-0 -71793-5 0  9998","OBJECT_ID":"2020-035AK","BSTAR":"-0.00000717930000","RCS_SIZE":"LARGE","INCLINATION":"53.0022","FILE":"3250974","DECAY_DATE":null,"EPOCH":"2021-12-25T18:28:53.640192","GP_ID":"192454801","PERIAPSIS":"548.758"},{"MEAN_ELEMENT_THEORY":"SGP4","REF_FRAME":"TEME","APOAPSIS":"548.307","EPHEMERIS_TYPE":"0","ELEMENT_SET_NO":"999","LAUNCH_DATE":"2020-06-04","TIME_SYSTEM":"UTC","COUNTRY_CODE":"US","OBJECT_NAME":"STARLINK-1415","OBJECT_TYPE":"PAYLOAD","TLE_LINE2":"2 45691  53.0545 107.0061 0001511  91.2855 268.8307 15.06384705 87538","CLASSIFICATION_TYPE":"U","CENTER_NAME":"EARTH","NORAD_CAT_ID":"45691","MEAN_ANOMALY":"268.8307","MEAN_MOTION_DOT":"-0.00002780","SITE":"AFETR","MEAN_MOTION_DDOT":"0.0000000000000","PERIOD":"95.593","TLE_LINE1":"1 45691U 20035AL  21359.80334416 -.00002780  00000-0 -16787-3 0  9995","REV_AT_EPOCH":"8753","MEAN_MOTION":"15.06384705","SEMIMAJOR_AXIS":"6925.395","RA_OF_ASC_NODE":"107.0061","ECCENTRICITY":"0.00015110","ARG_OF_PERICENTER":"91.2855","PERIAPSIS":"546.214","GP_ID":"192456052","DECAY_DATE":null,"EPOCH":"2021-12-25T19:16:48.935424","FILE":"3250974","INCLINATION":"53.0545","RCS_SIZE":"LARGE","BSTAR":"-0.00016787000000","OBJECT_ID":"2020-035AL"},{"TIME_SYSTEM":"UTC","LAUNCH_DATE":"2020-06-04","ELEMENT_SET_NO":"999","EPHEMERIS_TYPE":"0","APOAPSIS":"548.153","REF_FRAME":"TEME","MEAN_ELEMENT_THEORY":"SGP4","MEAN_MOTION_DDOT":"0.0000000000000","PERIOD":"95.592","SITE":"AFETR","MEAN_MOTION_DOT":"-0.00000054","CLASSIFICATION_TYPE":"U","MEAN_ANOMALY":"255.8424","NORAD_CAT_ID":"45692","CENTER_NAME":"EARTH","OBJECT_TYPE":"PAYLOAD","TLE_LINE2":"2 45692  53.0550 107.0352 0001348 104.2714 255.8424 15.06398147 87525","OBJECT_NAME":"STARLINK-1416","COUNTRY_CODE":"US","ARG_OF_PERICENTER":"104.2714","ECCENTRICITY":"0.00013480","SEMIMAJOR_AXIS":"6925.354","RA_OF_ASC_NODE":"107.0352","MEAN_MOTION":"15.06398147","REV_AT_EPOCH":"8752","TLE_LINE1":"1 45692U 20035AM  21359.79596235 -.00000054  00000-0  15293-4 0  9996","OBJECT_ID":"2020-035AM","BSTAR":"0.00001529300000","INCLINATION":"53.0550","RCS_SIZE":"LARGE","EPOCH":"2021-12-25T19:06:11.147040","DECAY_DATE":null,"FILE":"3250974","GP_ID":"192455801","PERIAPSIS":"546.286"},{"MEAN_MOTION_DOT":"-0.00001321","CLASSIFICATION_TYPE":"U","CENTER_NAME":"EARTH","NORAD_CAT_ID":"45693","MEAN_ANOMALY":"270.5666","OBJECT_TYPE":"PAYLOAD","TLE_LINE2":"2 45693  53.0547 106.9472 0001240  89.5465 270.5666 15.06391305 87523","COUNTRY_CODE":"US","OBJECT_NAME":"STARLINK-1417","MEAN_MOTION_DDOT":"0.0000000000000","PERIOD":"95.593","SITE":"AFETR","ELEMENT_SET_NO":"999","EPHEMERIS_TYPE":"0","APOAPSIS":"548.099","REF_FRAME":"TEME","MEAN_ELEMENT_THEORY":"SGP4","TIME_SYSTEM":"UTC","LAUNCH_DATE":"2020-06-04","EPOCH":"2021-12-25T19:32:44.131488","DECAY_DATE":null,"FILE":"3250974","GP_ID":"192454551","PERIAPSIS":"546.381","OBJECT_ID":"2020-035AN","BSTAR":"-0.00006981500000","INCLINATION":"53.0547","RCS_SIZE":"LARGE","REV_AT_EPOCH":"8752","TLE_LINE1":"1 45693U 20035AN  21359.81439967 -.00001321  00000-0 -69815-4 0  9996","ARG_OF_PERICENTER":"89.5465","ECCENTRICITY":"0.00012400","RA_OF_ASC_NODE":"106.9472","SEMIMAJOR_AXIS":"6925.375","MEAN_MOTION":"15.06391305"}];
